CAS-2T & KS-1Q          
1 41847U 16066G   20291.17493695  .00000068  00000-0  21298-4 0  9991
2 41847  98.6400 342.8318 0364817 226.0274 131.0293 14.38098702206913
NAYIF-1 (EO-88)         
1 42017U 17008BX  20290.15190561  .00001524  00000-0  60542-4 0  9994
2 42017  97.3483 355.8987 0004552 249.2447 110.8304 15.26839042203960
ZHUHAI-1 02 (CAS-4B)    
1 42759U 17034B   20291.15902553  .00000227  00000-0  27186-4 0  9995
2 42759  43.0181  78.3271 0009401  72.2674  96.5275 15.09909406184365
ZHUHAI-1 01 (CAS-4A)    
1 42761U 17034D   20291.16309314  .00000207  00000-0  25952-4 0  9992
2 42761  43.0182  77.5232 0009838  73.7697  94.9079 15.09988541184363
MAX VALIER SAT          
1 42778U 17036P   20290.71666425  .00000847  00000-0  39074-4 0  9991
2 42778  97.2915 340.9213 0010889 321.9547  38.0920 15.22829862184181
RADFXSAT (FOX-1B)       
1 43017U 17073E   20291.37126956  .00000922  00000-0  76501-4 0  9992
2 43017  97.7149 198.8611 0257050  13.3894 347.3971 14.79066958157186
FOX-1D (AO-92)          
1 43137U 18004AC  20291.19742291  .00001009  00000-0  44143-4 0  9990
2 43137  97.4352   1.4777 0008852 358.6246   1.4965 15.24356806153580
DIWATA-2B               
1 43678U 18084H   20291.49525748  .00000134  00000-0  19055-4 0  9999
2 43678  97.8971  49.9893 0010971 128.5358 231.6867 14.91658749107211
ES'HAIL 2               
1 43700U 18090A   20291.04879531  .00000136  00000-0  00000+0 0  9992
2 43700   0.0226 203.5011 0001813  25.4194 200.4426  1.00270290  7170
FOX-1CLIFF (AO-95)      
1 43770U 18099N   20291.45516554  .00000078  00000-0  12342-4 0  9998
2 43770  97.6951   0.6437 0015431 145.5971 214.6252 14.95062709102149
ITASAT 1                
1 43786U 18099AE  20290.15349691  .00000630  00000-0  62137-4 0  9998
2 43786  97.6972 359.8723 0016205 143.1771 217.0566 14.95393179101971
JY1SAT (JO-97)          
1 43803U 18099AX  20291.15681129  .00000616  00000-0  60544-4 0  9998
2 43803  97.6932   0.6487 0016216 140.1825 220.0589 14.95586268102124
PSAT2 (NO-104)          
1 44354U 19036R   20291.31252918  .00008987  00000-0  12646-3 0  9998
2 44354  28.5299 299.0373 0355585 174.4960 185.9683 15.05705993 72184
BRICSAT2 (NO-103)       
1 44355U 19036S   20291.20334504  .00017492  00000-0  23252-3 0  9995
2 44355  28.5302 283.4475 0326212 199.8484 158.9151 15.13163366 72335
JAISAT-1                
1 44419U 19038F   20291.12326670  .00001002  00000-0  60225-4 0  9996
2 44419  97.5537 251.3985 0023125  72.6061 287.7696 15.12977566 70997
DUCHIFAT-3              
1 44854U 19089C   20290.85133521  .00000346  00000-0  34294-4 0  9992
2 44854  36.9653 100.8723 0009827 322.4917  37.5130 14.99155235 46524
RS-44 & BREEZE-KM R/B   
1 44909U 19096E   20290.69743910  .00000005  00000-0 -17217-4 0  9991
2 44909  82.5172 274.7445 0216469 303.2334  54.8183 12.79708599 37693
ORBITAL FACTORY 2 (OF-2)
1 45113U 19071C   20291.01801447  .00001319  00000-0  51137-4 0  9996
2 45113  51.6417 136.1239 0013433 133.7871 226.4224 15.33816444 39787
HUSKYSAT-1              
1 45119U 19071J   20290.98044007  .00001824  00000-0  65935-4 0  9990
2 45119  51.6427 135.8731 0012728 130.3694 229.8402 15.33996996 39774
SALSAT                  
1 46495U 20068K   20290.38609758 -.00000047  00000-0  10888-5 0  9995
2 46495  97.6642 223.7079 0016396 174.2712 185.8702 15.03214057  2666
